ONEWEB-0281             
1 48999U 21060AJ  24015.60171071  .00000137  00000+0  32560-3 0  9992
2 48999  87.9050  44.6222 0001638 101.6927 258.4388 13.16597408123361
ONEWEB-0282             
1 49000U 21060AK  24015.55577210 -.00000005  00000+0 -46313-4 0  9993
2 49000  87.9050  44.6483 0002236  91.5798 268.5589 13.16592853123333
ONEWEB-0283             
1 49001U 21060AL  24015.62069143  .00000050  00000+0  98040-4 0  9995
2 49001  87.9042  44.6440 0002053 100.3349 259.8014 13.16591352124673
ONEWEB-0284             
1 49002U 21060AM  24015.61436615  .00000092  00000+0  20829-3 0  9992
2 49002  87.9035  44.6377 0002114  93.4487 266.6886 13.16595566123334
ONEWEB-0285             
1 49075U 21075A   24015.47247703  .00000385  00000+0  10356-2 0  9998
2 49075  87.9020 166.4740 0001542  98.2540 261.8763 13.12444241119292
ONEWEB-0286             
1 49076U 21075B   24015.44372641 -.00000336  00000+0 -97008-3 0  9994
2 49076  87.9017 166.4872 0001070  93.3123 266.8128 13.12443433118644
ONEWEB-0287             
1 49077U 21075C   24015.49797369  .00000065  00000+0  13488-3 0  9995
2 49077  87.9212 181.5783 0001446  78.3901 281.7392 13.17649493117259
ONEWEB-0288             
1 49078U 21075D   24015.42785579 -.00000007  00000+0 -55026-4 0  9992
2 49078  87.9014 166.4941 0001437  89.3424 270.7869 13.12441579119260
